CCSDS_OMM_VERS,COMMENT,CREATION_DATE,ORIGINATOR,OBJECT_NAME,OBJECT_ID,CENTER_NAME,REF_FRAME,TIME_SYSTEM,MEAN_ELEMENT_THEORY,EPOCH,MEAN_MOTION,ECCENTRICITY,INCLINATION,RA_OF_ASC_NODE,ARG_OF_PERICENTER,MEAN_ANOMALY,EPHEMERIS_TYPE,CLASSIFICATION_TYPE,NORAD_CAT_ID,ELEMENT_SET_NO,REV_AT_EPOCH,BSTAR,MEAN_MOTION_DOT,MEAN_MOTION_DDOT,SEMIMAJOR_AXIS,PERIOD,APOAPSIS,PERIAPSIS,OBJECT_TYPE,RCS_SIZE,COUNTRY_CODE,LAUNCH_DATE,SITE,DECAY_DATE,FILE,GP_ID,TLE_LINE0,TLE_LINE1,TLE_LINE2
"2.0","GENERATED VIA SPACE-TRACK.ORG API","2020-04-09T20:26:11","18 SPCS","SL-18 DEB","1993-014BJ","EARTH","TEME","UTC","SGP4","2020-04-09T14:05:17.659680","14.80470702","0.00660390","75.7399","316.6222","34.9218","325.6272","0","U","35359","999","67275","0.00045778000000","0.00003617","0.0000000000000","7005.975","97.266","674.107","581.573","DEBRIS","SMALL","CIS","1993-03-25","PKMTR","","2731422","151922115","0 SL-18 DEB","1 35359U 93014BJ  20100.58700995  .00003617  00000-0  45778-3 0  9999","2 35359  75.7399 316.6222 0066039  34.9218 325.6272 14.80470702672757"
"2.0","GENERATED VIA SPACE-TRACK.ORG API","2020-04-09T18:14:09","18 SPCS","IRIDIUM 176","2019-002B","EARTH","TEME","UTC","SGP4","2020-04-09T13:44:30.823872","14.72250763","0.00024360","86.6158","217.8552","91.0912","269.0584","0","U","43923","999","6679","0.00001761300000","0.00000136","0.0000000000000","7032.028","97.809","655.606","652.180","PAYLOAD","LARGE","US","2019-01-11","AFWTR","","2731278","151917797","0 IRIDIUM 176","1 43923U 19002B   20100.57257898 +.00000136 +00000-0 +17613-4 0  9999","2 43923 086.6158 217.8552 0002436 091.0912 269.0584 14.72250763066793"
"2.0","GENERATED VIA SPACE-TRACK.ORG API","2020-04-09T20:16:10","18 SPCS","IRIDIUM 176","2019-002B","EARTH","TEME","UTC","SGP4","2020-04-09T13:44:30.823872","14.72250763","0.00024360","86.6158","217.8552","91.0912","269.0584","0","U","43923","999","6679","0.00001761300000","0.00000136","0.0000000000000","7032.028","97.809","655.606","652.180","PAYLOAD","LARGE","US","2019-01-11","AFWTR","","2731320","151919767","0 IRIDIUM 176","1 43923U 19002B   20100.57257898  .00000136  00000-0  17613-4 0  9999","2 43923  86.6158 217.8552 0002436  91.0912 269.0584 14.72250763 66793"
"2.0","GENERATED VIA SPACE-TRACK.ORG API","2020-04-09T18:14:09","18 SPCS","SL-18 DEB","1993-014BJ","EARTH","TEME","UTC","SGP4","2020-04-08T23:29:29.356800","14.80465506","0.00660320","75.7400","317.6961","36.4049","324.1600","0","U","35359","999","67200","0.00042208000000","0.00003332","0.0000000000000","7005.992","97.266","674.119","581.595","DEBRIS","SMALL","CIS","1993-03-25","PKMTR","","2731278","151911462","0 SL-18 DEB","1 35359U 93014BJ  20099.97881200 +.00003332 +00000-0 +42208-3 0  9997","2 35359 075.7400 317.6961 0066032 036.4049 324.1600 14.80465506672006"
"2.0","GENERATED VIA SPACE-TRACK.ORG API","2020-04-09T02:17:41","18 SPCS","IRIDIUM 176","2019-002B","EARTH","TEME","UTC","SGP4","2020-04-08T19:47:54.226752","14.72250546","0.00024350","86.6157","218.1671","91.2097","268.9399","0","U","43923","999","6668","0.00001480400000","0.00000118","0.0000000000000","7032.029","97.809","655.606","652.182","PAYLOAD","LARGE","US","2019-01-11","AFWTR","","2730956","151890410","0 IRIDIUM 176","1 43923U 19002B   20099.82493318 +.00000118 +00000-0 +14804-4 0  9992","2 43923 086.6157 218.1671 0002435 091.2097 268.9399 14.72250546066682"
"2.0","GENERATED VIA SPACE-TRACK.ORG API","2020-04-08T14:26:10","18 SPCS","IRIDIUM 176","2019-002B","EARTH","TEME","UTC","SGP4","2020-04-08T10:00:39.710592","14.72250518","0.00024360","86.6157","218.3373","91.1744","268.9753","0","U","43923","999","6662","0.00001594100000","0.00000125","0.0000000000000","7032.029","97.809","655.607","652.181","PAYLOAD","LARGE","US","2019-01-11","AFWTR","","2730603","151824410","0 IRIDIUM 176","1 43923U 19002B   20099.41712628  .00000125  00000-0  15941-4 0  9996","2 43923  86.6157 218.3373 0002436  91.1744 268.9753 14.72250518 66629"
"2.0","GENERATED VIA SPACE-TRACK.ORG API","2020-04-08T18:36:14","18 SPCS","SL-18 DEB","1993-014BJ","EARTH","TEME","UTC","SGP4","2020-04-08T07:16:22.143648","14.80460903","0.00660220","75.7402","318.8890","38.0475","322.5346","0","U","35359","999","67190","0.00042137000000","0.00003326","0.0000000000000","7006.006","97.267","674.126","581.616","DEBRIS","SMALL","CIS","1993-03-25","PKMTR","","2730800","151841045","0 SL-18 DEB","1 35359U 93014BJ  20099.30303407 +.00003326 +00000-0 +42137-3 0  9996","2 35359 075.7402 318.8890 0066022 038.0475 322.5346 14.80460903671905"
"2.0","GENERATED VIA SPACE-TRACK.ORG API","2020-04-08T06:56:10","18 SPCS","SL-18 DEB","1993-014BJ","EARTH","TEME","UTC","SGP4","2020-04-08T00:47:07.194624","14.80459191","0.00660070","75.7403","319.3662","38.7049","321.8839","0","U","35359","999","67252","0.00042231000000","0.00003334","0.0000000000000","7006.012","97.267","674.121","581.632","DEBRIS","SMALL","CIS","1993-03-25","PKMTR","","2730510","151822372","0 SL-18 DEB","1 35359U 93014BJ  20099.03272216  .00003334  00000-0  42231-3 0  9993","2 35359  75.7403 319.3662 0066007  38.7049 321.8839 14.80459191672521"
"2.0","GENERATED VIA SPACE-TRACK.ORG API","2020-04-08T01:06:58","18 SPCS","IRIDIUM 176","2019-002B","EARTH","TEME","UTC","SGP4","2020-04-07T20:57:40.361184","14.72250334","0.00024360","86.6156","218.5641","91.2372","268.9124","0","U","43923","999","6654","0.00001361400000","0.00000111","0.0000000000000","7032.030","97.809","655.608","652.182","PAYLOAD","LARGE","US","2019-01-11","AFWTR","","2730370","151817787","0 IRIDIUM 176","1 43923U 19002B   20098.87338381 +.00000111 +00000-0 +13614-4 0  9995","2 43923 086.6156 218.5641 0002436 091.2372 268.9124 14.72250334066545"
"2.0","GENERATED VIA SPACE-TRACK.ORG API","2020-04-07T17:25:27","18 SPCS","IRIDIUM 176","2019-002B","EARTH","TEME","UTC","SGP4","2020-04-07T14:26:10.679136","14.72250331","0.00024330","86.6156","218.6776","91.3039","268.8457","0","U","43923","999","6650","0.00001594700000","0.00000125","0.0000000000000","7032.030","97.809","655.606","652.184","PAYLOAD","LARGE","US","2019-01-11","AFWTR","","2730177","151773733","0 IRIDIUM 176","1 43923U 19002B   20098.60151249 +.00000125 +00000-0 +15947-4 0  9998","2 43923 086.6156 218.6776 0002433 091.3039 268.8457 14.72250331066504"
"2.0","GENERATED VIA SPACE-TRACK.ORG API","2020-04-07T14:26:09","18 SPCS","IRIDIUM 176","2019-002B","EARTH","TEME","UTC","SGP4","2020-04-07T09:32:33.421056","14.72250289","0.00024340","86.6155","218.7626","91.2607","268.8889","0","U","43923","999","6647","0.00001544300000","0.00000122","0.0000000000000","7032.030","97.809","655.607","652.183","PAYLOAD","LARGE","US","2019-01-11","AFWTR","","2730021","151751422","0 IRIDIUM 176","1 43923U 19002B   20098.39760904  .00000122  00000-0  15443-4 0  9996","2 43923  86.6155 218.7626 0002434  91.2607 268.8889 14.72250289 66476"
"2.0","GENERATED VIA SPACE-TRACK.ORG API","2020-04-07T17:25:27","18 SPCS","SL-18 DEB","1993-014BJ","EARTH","TEME","UTC","SGP4","2020-04-07T06:56:40.959744","14.80454143","0.00659800","75.7405","320.6785","40.5225","320.0846","0","U","35359","999","67175","0.00041562000000","0.00003280","0.0000000000000","7006.027","97.267","674.118","581.667","DEBRIS","SMALL","CIS","1993-03-25","PKMTR","","2730177","151767397","0 SL-18 DEB","1 35359U 93014BJ  20098.28936296 +.00003280 +00000-0 +41562-3 0  9990","2 35359 075.7405 320.6785 0065980 040.5225 320.0846 14.80454143671755"
"2.0","GENERATED VIA SPACE-TRACK.ORG API","2020-04-07T01:31:45","18 SPCS","SL-18 DEB","1993-014BJ","EARTH","TEME","UTC","SGP4","2020-04-06T21:12:48.362112","14.80451803","0.00659540","75.7407","321.3943","41.5140","319.1027","0","U","35359","999","67169","0.00043967000000","0.00003471","0.0000000000000","7006.035","97.267","674.107","581.692","DEBRIS","SMALL","CIS","1993-03-25","PKMTR","","2729827","151739176","0 SL-18 DEB","1 35359U 93014BJ  20097.88389308 +.00003471 +00000-0 +43967-3 0  9994","2 35359 075.7407 321.3943 0065954 041.5140 319.1027 14.80451803671692"
"2.0","GENERATED VIA SPACE-TRACK.ORG API","2020-04-07T07:06:09","18 SPCS","SL-18 DEB","1993-014BJ","EARTH","TEME","UTC","SGP4","2020-04-06T21:12:48.362112","14.80451803","0.00659540","75.7407","321.3943","41.5140","319.1027","0","U","35359","999","67235","0.00043967000000","0.00003471","0.0000000000000","7006.035","97.267","674.107","581.692","DEBRIS","SMALL","CIS","1993-03-25","PKMTR","","2729947","151749777","0 SL-18 DEB","1 35359U 93014BJ  20097.88389308  .00003471  00000-0  43967-3 0  9994","2 35359  75.7407 321.3943 0065954  41.5140 319.1027 14.80451803672356"
"2.0","GENERATED VIA SPACE-TRACK.ORG API","2020-04-07T01:31:45","18 SPCS","IRIDIUM 176","2019-002B","EARTH","TEME","UTC","SGP4","2020-04-06T20:29:34.066464","14.72250082","0.00024310","86.6155","218.9895","91.3046","268.8450","0","U","43923","999","6639","0.00001165600000","0.00000098","0.0000000000000","7032.031","97.809","655.605","652.186","PAYLOAD","LARGE","US","2019-01-11","AFWTR","","2729827","151745512","0 IRIDIUM 176","1 43923U 19002B   20097.85386651 +.00000098 +00000-0 +11656-4 0  9993","2 43923 086.6155 218.9895 0002431 091.3046 268.8450 14.72250082066397"
"2.0","GENERATED VIA SPACE-TRACK.ORG API","2020-04-06T18:43:07","18 SPCS","IRIDIUM 176","2019-002B","EARTH","TEME","UTC","SGP4","2020-04-06T09:04:27.120288","14.72250085","0.00024370","86.6154","219.1879","91.4837","268.6659","0","U","43923","999","6632","0.00001579600000","0.00000124","0.0000000000000","7032.031","97.809","655.609","652.182","PAYLOAD","LARGE","US","2019-01-11","AFWTR","","2729621","151720998","0 IRIDIUM 176","1 43923U 19002B   20097.37809167 +.00000124 +00000-0 +15796-4 0  9991","2 43923 086.6154 219.1879 0002437 091.4837 268.6659 14.72250085066321"
